NORAD_CAT_ID,OBJECT_NAME,OBJECT_TYPE,EPOCH,MEAN_MOTION,ECCENTRICITY,INCLINATION,RA_OF_ASC_NODE,ARG_OF_PERICENTER,MEAN_ANOMALY,BSTAR,MEAN_MOTION_DOT,MEAN_MOTION_DDOT,TLE_LINE0,TLE_LINE1,TLE_LINE2,SEMIMAJOR_AXIS,PERIOD,APOGEE,PERIGEE,DECAYED
52305.0,STARLINK-3724,PAYLOAD,2022-07-06 14:00:01,15.27561131,0.0001205,53.2176,4.7739,82.3239,325.6213,-0.028479,-0.00725635,0.0,0 STARLINK-3724,1 52305U 22041AW  22187.58334491 -.00725635  00000-0 -28479-1 0  9992,2 52305  53.2176   4.7739 0001205  82.3239 325.6213 15.27561131 13105,6861.243,94.268,483.934,482.281,0.0
52305.0,STARLINK-3724,PAYLOAD,2022-07-06 22:00:00,15.27048019,0.0001252999999999,53.2174,3.2384,75.4693,6.2535,-0.028711,-0.00720527,0.0,0 STARLINK-3724,1 52305U 22041AW  22187.91667824 -.00720527  00000-0 -28711-1 0  9992,2 52305  53.2174   3.2384 0001253  75.4693   6.2535 15.27048019  1306,6862.78,94.3,485.504,483.785,0.0
52305.0,STARLINK-3724,PAYLOAD,2022-07-07 14:00:01,15.26030245,0.0001334,53.2176,0.1665,80.502,66.9369,-0.029775,-0.00724195,0.0,0 STARLINK-3724,1 52305U 22041AW  22188.58334491 -.00724195  00000-0 -29775-1 0  9993,2 52305  53.2176   0.1665 0001334  80.5020  66.9369 15.26030245  1306,6865.831,94.362,488.611,486.78,0.0
52305.0,STARLINK-3724,PAYLOAD,2022-07-07 21:13:27,15.26971683,0.000248,53.2187,358.76199999999994,94.8773,265.2511,-0.008952,-0.0023313,0.0,0 STARLINK-3724,1 52305U 22041AW  22188.88434164 -.00233130  00000-0 -89520-2 0  9993,2 52305  53.2187 358.7620 0002480  94.8773 265.2511 15.26971683 12087,6863.0080000000025,94.304,486.575,483.171,0.0
52305.0,STARLINK-3724,PAYLOAD,2022-07-07 22:00:00,15.25516229,0.0001348,53.2175,358.6347,77.2149,102.1633,-0.029917,-0.00716921,0.0,0 STARLINK-3724,1 52305U 22041AW  22188.91667824 -.00716921  00000-0 -29917-1 0  9995,2 52305  53.2175 358.6347 0001348  77.2149 102.1633 15.25516229 13314,6867.373000000001,94.394,490.163,488.312,0.0
52305.0,STARLINK-3724,PAYLOAD,2022-07-08 14:00:01,15.24499474,0.0001371,53.2175,355.5702,76.8227,164.5942,-0.0311,-0.00722389,0.0,0 STARLINK-3724,1 52305U 22041AW  22189.58334491 -.00722389  00000-0 -31100-1 0  9992,2 52305  53.2175 355.5702 0001371  76.8227 164.5942 15.24499474  1305,6870.426,94.457,493.233,491.349,0.0
52305.0,STARLINK-3724,PAYLOAD,2022-07-08 22:00:01,15.23987397,0.0001284999999999,53.2174,354.0417,90.3232,181.2575,-0.031382,-0.00718114,0.0,0 STARLINK-3724,1 52305U 22041AW  22189.91668981 -.00718114  00000-0 -31382-1 0  9996,2 52305  53.2174 354.0417 0001285  90.3232 181.2575 15.23987397 13465,6871.965,94.489,494.713,492.947,0.0
52305.0,STARLINK-3724,PAYLOAD,2022-07-09 14:00:01,15.22970239,0.0001267,53.2175,350.9844,74.4088,255.4709,-0.0326,-0.00723288,0.0,0 STARLINK-3724,1 52305U 22041AW  22190.58334491 -.00723288  00000-0 -32600-1 0  9999,2 52305  53.2175 350.9844 0001267  74.4088 255.4709 15.22970239  1306,6875.024,94.552,497.76,496.018,0.0
52305.0,STARLINK-3724,PAYLOAD,2022-07-09 20:00:01,15.22586751,0.0001341999999999,53.2175,349.8409,93.8813,167.2519,-0.032875,-0.00721267,0.0,0 STARLINK-3724,1 52305U 22041AW  22190.83334491 -.00721267  00000-0 -32875-1 0  9996,2 52305  53.2175 349.8409 0001342  93.8813 167.2519 15.22586751  1306,6876.179,94.576,498.966,497.121,0.0
52305.0,STARLINK-3724,PAYLOAD,2022-07-10 14:00:01,15.21440945,0.0001273,53.2175,346.4096,72.5356,340.2917,-0.034175,-0.00724529,0.0,0 STARLINK-3724,1 52305U 22041AW  22191.58334491 -.00724529  00000-0 -34175-1 0  9998,2 52305  53.2175 346.4096 0001273  72.5356 340.2917 15.21440945  1308,6879.63,94.647,502.371,500.62,0.0
52305.0,STARLINK-3724,PAYLOAD,2022-07-10 22:00:00,15.20928903,0.0001227,53.2172,344.88800000000015,78.4521,0.7989,-0.034473,-0.00720202,0.0,0 STARLINK-3724,1 52305U 22041AW  22191.91667824 -.00720202  00000-0 -34473-1 0  9999,2 52305  53.2172 344.8880 0001227  78.4521   0.7989 15.20928903 13771,6881.174,94.679,503.884,502.195,0.0
52305.0,STARLINK-3724,PAYLOAD,2022-07-11 14:00:01,15.19909931,0.0001392,53.2174,341.8453,69.9275,60.3331,-0.03566,-0.0072288,0.0,0 STARLINK-3724,1 52305U 22041AW  22192.58334491 -.00722880  00000-0 -35660-1 0  9997,2 52305  53.2174 341.8453 0001392  69.9275  60.3331 15.19909931  1307,6884.25,94.742,507.073,505.156,0.0
52305.0,STARLINK-3724,PAYLOAD,2022-07-11 22:00:00,15.19399175,0.0001330999999999,53.2172,340.3271,82.6002,72.2453,-0.036077,-0.00720653,0.0,0 STARLINK-3724,1 52305U 22041AW  22192.91667824 -.00720653  00000-0 -36077-1 0  9992,2 52305  53.2172 340.3271 0001331  82.6002  72.2453 15.19399175  1300,6885.792,94.774,508.574,506.741,0.0
52305.0,STARLINK-3724,PAYLOAD,2022-07-12 14:00:01,15.18378674,0.0001479,53.2175,337.2919,67.515,134.6636,-0.037149,-0.00720398,0.0,0 STARLINK-3724,1 52305U 22041AW  22193.58334491 -.00720398  00000-0 -37149-1 0  9994,2 52305  53.2175 337.2919 0001479  67.5150 134.6636 15.18378674  1302,6888.877,94.838,511.761,509.723,0.0
52305.0,STARLINK-3724,PAYLOAD,2022-07-12 22:00:00,15.1787056,0.0001341,53.2172,335.777,87.6581,137.2663,-0.037844,-0.00722954,0.0,0 STARLINK-3724,1 52305U 22041AW  22193.91667824 -.00722954  00000-0 -37844-1 0  9992,2 52305  53.2172 335.7770 0001341  87.6581 137.2663 15.17870560  1305,6890.415,94.87,513.2040000000002,511.356,0.0
52305.0,STARLINK-3724,PAYLOAD,2022-07-13 14:00:01,15.16848541,0.0001439,53.2174,332.7491,66.405,202.1761,-0.038786,-0.00719677,0.0,0 STARLINK-3724,1 52305U 22041AW  22194.58334491 -.00719677  00000-0 -38786-1 0  9991,2 52305  53.2174 332.7491 0001439  66.4050 202.1761 15.16848541  1302,6893.509,94.934,516.366,514.382,0.0
52305.0,STARLINK-3724,PAYLOAD,2022-07-13 22:00:00,15.16341901,0.0001277,53.2171,331.2376,86.9969,202.4914,-0.039675,-0.00725127,0.0,0 STARLINK-3724,1 52305U 22041AW  22194.91667824 -.00725127  00000-0 -39675-1 0  9992,2 52305  53.2171 331.2376 0001277  86.9969 202.4914 15.16341901  1302,6895.045,94.965,517.79,516.029,0.0
52305.0,STARLINK-3724,PAYLOAD,2022-07-14 06:00:00,15.15827832,0.0001269,53.2174,329.7252,78.9699,230.8169,-0.039895,-0.00718938,0.0,0 STARLINK-3724,1 52305U 22041AW  22195.25001157 -.00718938  00000-0 -39895-1 0  9997,2 52305  53.2174 329.7252 0001269  78.9699 230.8169 15.15827832 14270,6896.603,94.998,519.344,517.5930000000002,0.0
52305.0,STARLINK-3724,PAYLOAD,2022-07-14 14:00:01,15.15319354,0.0001296,53.2174,328.217,74.6569,254.8113,-0.040583,-0.00720674,0.0,0 STARLINK-3724,1 52305U 22041AW  22195.58334491 -.00720674  00000-0 -40583-1 0  9999,2 52305  53.2174 328.2170 0001296  74.6569 254.8113 15.15319354  1302,6898.146,95.029,520.905,519.117,0.0
52305.0,STARLINK-3724,PAYLOAD,2022-07-14 22:00:00,15.14811976,0.0001226,53.2172,326.7088,80.8093,267.7282,-0.041443,-0.00725065,0.0,0 STARLINK-3724,1 52305U 22041AW  22195.91667824 -.00725065  00000-0 -41443-1 0  9990,2 52305  53.2172 326.7088 0001226  80.8093 267.7282 15.14811976  1301,6899.686,95.061,522.3969999999998,520.706,0.0
52305.0,STARLINK-3724,PAYLOAD,2022-07-15 06:00:00,15.1429744,0.0001248,53.2173,325.2001,73.6109,293.3869,-0.041631,-0.00718283,0.0,0 STARLINK-3724,1 52305U 22041AW  22196.25001157 -.00718283  00000-0 -41631-1 0  9992,2 52305  53.2173 325.2001 0001248  73.6109 293.3869 15.14297440 14420,6901.249,95.094,523.976,522.253,0.0
52305.0,STARLINK-3724,PAYLOAD,2022-07-15 14:00:01,15.13790187,0.0001357,53.2175,323.6956,64.5475,320.2928,-0.042466,-0.00721986,0.0,0 STARLINK-3724,1 52305U 22041AW  22196.58334491 -.00721986  00000-0 -42466-1 0  9999,2 52305  53.2175 323.6956 0001357  64.5475 320.2928 15.13790187  1303,6902.791,95.125,525.5930000000002,523.719,0.0
52305.0,STARLINK-3724,PAYLOAD,2022-07-15 22:00:00,15.13281187,0.0001353,53.2172,322.1908,61.5546,340.5173,-0.04318,-0.00723538,0.0,0 STARLINK-3724,1 52305U 22041AW  22196.91667824 -.00723538  00000-0 -43180-1 0  9994,2 52305  53.2172 322.1908 0001353  61.5546 340.5173 15.13281187  1305,6904.339,95.157,527.138,525.27,0.0
52305.0,STARLINK-3724,PAYLOAD,2022-07-16 14:00:01,15.12260511,0.0001385999999999,53.2176,319.1849,66.7525,7.945,-0.044373,-0.0072257,0.0,0 STARLINK-3724,1 52305U 22041AW  22197.58334491 -.00722570  00000-0 -44373-1 0  9999,2 52305  53.2176 319.1849 0001386  66.7525   7.9450 15.12260511  1308,6907.445,95.222,530.2669999999998,528.3530000000002,0.0
52305.0,STARLINK-3724,PAYLOAD,2022-07-16 22:00:00,15.11750262,0.0001302,53.2173,317.6834,77.0464,13.045,-0.04496,-0.00721792,0.0,0 STARLINK-3724,1 52305U 22041AW  22197.91667824 -.00721792  00000-0 -44960-1 0  9992,2 52305  53.2173 317.6834 0001302  77.0464  13.0450 15.11750262  1301,6908.999,95.254,531.764,529.965,0.0
52305.0,STARLINK-3724,PAYLOAD,2022-07-17 06:00:00,15.11239293,0.0001315,53.2175,316.1818,82.6366,22.2369,-0.04556,-0.00721115,0.0,0 STARLINK-3724,1 52305U 22041AW  22198.25001157 -.00721115  00000-0 -45560-1 0  9997,2 52305  53.2175 316.1818 0001315  82.6366  22.2369 15.11239293 14734,6910.556,95.286,533.33,531.513,0.0
52305.0,STARLINK-3724,PAYLOAD,2022-07-17 14:00:01,15.10730261,0.0001431,53.2176,314.6848,70.115,48.9249,-0.046282,-0.0072217,0.0,0 STARLINK-3724,1 52305U 22041AW  22198.58334491 -.00722170  00000-0 -46282-1 0  9997,2 52305  53.2176 314.6848 0001431  70.1150  48.9249 15.10730261  1304,6912.109,95.318,534.9630000000002,532.985,0.0
52305.0,STARLINK-3724,PAYLOAD,2022-07-17 22:00:00,15.10219905,0.0001409999999999,53.2174,313.1867,69.7279,62.8675,-0.04687,-0.00721128,0.0,0 STARLINK-3724,1 52305U 22041AW  22198.91667824 -.00721128  00000-0 -46870-1 0  9998,2 52305  53.2174 313.1867 0001410  69.7279  62.8675 15.10219905  1305,6913.666,95.35,536.506,534.556,0.0
52305.0,STARLINK-3724,PAYLOAD,2022-07-18 06:00:00,15.09711225,0.0001405,53.2175,311.6885,75.0711,70.4675,-0.047862,-0.0072575,0.0,0 STARLINK-3724,1 52305U 22041AW  22199.25001157 -.00725750  00000-0 -47862-1 0  9994,2 52305  53.2175 311.6885 0001405  75.0711  70.4675 15.09711225 14886,6915.219,95.382,538.055,536.112,0.0
